OBJECT_NAME,OBJECT_ID,EPOCH,MEAN_MOTION,ECCENTRICITY,INCLINATION,RA_OF_ASC_NODE,ARG_OF_PERICENTER,MEAN_ANOMALY,EPHEMERIS_TYPE,CLASSIFICATION_TYPE,NORAD_CAT_ID,ELEMENT_SET_NO,REV_AT_EPOCH,BSTAR,MEAN_MOTION_DOT,MEAN_MOTION_DDOT
STARLINK-5783,2023-042AN,2026-06-30T19:59:03.553728,15.27577197,.00022141,43.0045,125.8777,267.9187,92.1411,0,U,56022,999,18034,.33832946E-4,.669E-5,0
STARLINK-5771,2023-042AP,2026-07-01T03:40:48.055872,15.27577544,.00010018,43.0011,124.8373,269.8454,90.2283,0,U,56023,999,18038,.21682402E-4,.335E-5,0
STARLINK-5772,2023-042AQ,2026-07-01T02:32:20.783040,15.27574898,.00012861,43.0030,124.4820,260.3100,99.7606,0,U,56024,999,18038,.13078544E-4,.98E-6,0
STARLINK-5766,2023-042AR,2026-07-01T03:38:56.403744,15.27595831,.00009941,43.0018,124.8246,270.7562,89.3176,0,U,56025,999,18038,-.68837539E-4,-.2157E-4,0
STARLINK-5770,2023-042AS,2026-06-30T21:38:46.207680,15.27577544,.000152,43.0033,125.5394,275.0735,84.9944,0,U,56026,999,18034,.26738E-4,.474E-5,0
STARLINK-5777,2023-042AT,2026-06-30T23:05:31.503552,15.27576141,.00015749,43.0043,125.1324,273.8310,86.2361,0,U,56027,999,18036,.5081344E-5,-.122E-5,0
STARLINK-5779,2023-042AU,2026-07-01T02:47:08.436768,15.27574037,.00014733,43.0026,124.5580,264.7119,95.3565,0,U,56028,999,18038,-.5567316E-5,-.415E-5,0
STARLINK-5774,2023-042AV,2026-06-29T23:46:07.853088,15.27574291,.00017291,43.0031,130.7317,269.6171,90.4482,0,U,56029,999,18021,.3517438E-4,.706E-5,0
STARLINK-5781,2023-042AW,2026-07-01T02:52:41.530368,15.27578928,.00006829,43.0006,124.5838,242.3735,117.7048,0,U,56030,999,18038,.27855325E-4,.505E-5,0
STARLINK-5785,2023-042AX,2026-07-01T02:36:02.681568,15.27576266,.00016003,43.0035,124.5038,263.4543,96.6126,0,U,56031,999,18038,.16539242E-4,.193E-5,0
STARLINK-5786,2023-042AY,2026-07-01T03:13:02.917056,15.27577079,.00011271,43.0007,124.6910,264.7456,95.3267,0,U,56032,999,18038,.13891338E-4,.12E-5,0
STARLINK-5782,2023-042BA,2026-07-01T03:24:09.273600,15.27585173,.00011895,43.0009,124.7446,249.9069,110.1654,0,U,56034,999,18038,.76887098E-4,.1855E-4,0
STARLINK-5792,2023-042BB,2026-07-01T02:58:14.868480,15.27576396,.00009611,43.0013,124.6131,256.0135,104.0609,0,U,56035,999,18038,.29497421E-4,.55E-5,0
STARLINK-5790,2023-042BC,2026-07-01T03:11:11.782464,15.27578578,.0000656,43.0019,124.6662,223.4169,136.6631,0,U,56036,999,18038,.12364838E-4,.78E-6,0
STARLINK-5758,2023-042BD,2026-07-01T01:54:23.725728,15.27619153,.00015039,43.0014,110.3817,247.3940,112.6753,0,U,56037,999,18054,-.34196307E-3,-.9671E-4,0
STARLINK-5793,2023-042BE,2026-07-01T03:35:14.376480,15.27584833,.00009874,43.0007,124.7978,165.9257,194.1622,0,U,56038,999,18038,.62165347E-4,.1449E-4,0
STARLINK-5795,2023-042BF,2026-06-30T20:03:41.369472,15.27577206,.00008773,43.0022,111.9937,255.6930,104.3824,0,U,56039,999,18050,.15239616E-4,.157E-5,0
STARLINK-5798,2023-042BG,2026-07-01T02:25:51.877632,15.27575157,.00005971,43.0027,110.5352,245.3716,114.7074,0,U,56040,999,18054,.19021823E-4,.262E-5,0
STARLINK-5800,2023-042BH,2026-06-30T19:20:26.001600,15.27581872,.00014454,43.0045,115.1635,261.5118,98.5570,0,U,56041,999,18046,.81557517E-4,.1983E-4,0
STARLINK-6109,2023-046B,2026-06-30T13:06:49.291776,15.27575575,.00010254,43.0021,244.0242,273.6045,86.4690,0,U,56094,999,17929,.1254675E-5,-.227E-5,0
STARLINK-6090,2023-046C,2026-07-01T14:02:13.393536,15.27568828,.00010382,43.0006,238.0588,286.0818,73.9920,0,U,56095,999,17945,-.37708597E-4,-.1299E-4,0
STARLINK-6089,2023-046D,2026-07-01T14:18:52.361568,15.27578328,.00012047,43.0022,238.1439,284.0110,76.0608,0,U,56096,999,17945,.18775965E-4,.255E-5,0
STARLINK-6077,2023-046E,2026-07-01T12:21:51.066432,15.27574147,.0001026,43.0011,191.4549,270.7542,89.3192,0,U,56097,999,17998,.76897E-5,-.5E-6,0
STARLINK-6088,2023-046F,2026-06-30T13:01:16.331232,15.27574868,.00009745,43.0010,243.9984,285.2615,74.8128,0,U,56098,999,17928,.6225514E-5,-.91E-6,0
STARLINK-6076,2023-046H,2026-07-01T10:46:31.009728,15.27588954,.0001378,42.9986,238.7623,293.3784,66.6922,0,U,56100,999,17943,.46186842E-4,.1009E-4,0
STARLINK-6095,2023-046J,2026-06-30T14:28:01.541568,15.27576637,.00013001,43.0011,243.5813,273.9115,86.1588,0,U,56101,999,17930,-.23922031E-4,-.92E-5,0
STARLINK-6075,2023-046K,2026-07-01T14:22:34.477824,15.27588774,.00014291,43.0011,238.1548,319.8087,40.2659,0,U,56102,999,17945,.1566691E-4,.169E-5,0
STARLINK-6096,2023-046L,2026-06-30T13:04:59.914560,15.27565369,.00011229,43.0017,244.0112,281.3145,78.7580,0,U,56103,999,17929,-.22054846E-4,-.869E-5,0
STARLINK-6062,2023-046M,2026-06-28T12:20:33.905184,15.27566985,.00013651,43.0020,255.4275,260.9740,99.0957,0,U,56104,999,17898,.16121698E-3,.4175E-4,0
STARLINK-6066,2023-046N,2026-07-01T11:49:24.921120,15.27609557,.00021806,42.9979,239.0729,260.9519,99.1086,0,U,56105,999,17943,.80368144E-3,.2194E-3,0
