STARLINK-5783           
1 56022U 23042AN  26181.83268002  .00000669  00000+0  33833-4 0  9997
2 56022  43.0045 125.8777 0002214 267.9187  92.1411 15.27577197180344
STARLINK-5771           
1 56023U 23042AP  26182.15333398  .00000335  00000+0  21682-4 0  9994
2 56023  43.0011 124.8373 0001001 269.8454  90.2283 15.27577544180386
STARLINK-5772           
1 56024U 23042AQ  26182.10579610  .00000098  00000+0  13079-4 0  9996
2 56024  43.0030 124.4820 0001286 260.3100  99.7606 15.27574898180382
STARLINK-5766           
1 56025U 23042AR  26182.15204171 -.00002157  00000+0 -68838-4 0  9992
2 56025  43.0018 124.8246 0000994 270.7562  89.3176 15.27595831180384
STARLINK-5770           
1 56026U 23042AS  26181.90192370  .00000474  00000+0  26738-4 0  9993
2 56026  43.0033 125.5394 0001520 275.0735  84.9944 15.27577544180341
STARLINK-5777           
1 56027U 23042AT  26181.96217018 -.00000122  00000+0  50813-5 0  9990
2 56027  43.0043 125.1324 0001574 273.8310  86.2361 15.27576141180368
STARLINK-5779           
1 56028U 23042AU  26182.11606987 -.00000415  00000+0 -55673-5 0  9991
2 56028  43.0026 124.5580 0001473 264.7119  95.3565 15.27574037180382
STARLINK-5774           
1 56029U 23042AV  26180.99036867  .00000706  00000+0  35174-4 0  9994
2 56029  43.0031 130.7317 0001729 269.6171  90.4482 15.27574291180210
STARLINK-5781           
1 56030U 23042AW  26182.11992512  .00000505  00000+0  27855-4 0  9994
2 56030  43.0006 124.5838 0000682 242.3735 117.7048 15.27578928180384
STARLINK-5785           
1 56031U 23042AX  26182.10836437  .00000193  00000+0  16539-4 0  9997
2 56031  43.0035 124.5038 0001600 263.4543  96.6126 15.27576266180386
STARLINK-5786           
1 56032U 23042AY  26182.13406154  .00000120  00000+0  13891-4 0  9998
2 56032  43.0007 124.6910 0001127 264.7456  95.3267 15.27577079180382
STARLINK-5782           
1 56034U 23042BA  26182.14177400  .00001855  00000+0  76887-4 0  9990
2 56034  43.0009 124.7446 0001189 249.9069 110.1654 15.27585173180384
STARLINK-5792           
1 56035U 23042BB  26182.12378320  .00000550  00000+0  29497-4 0  9999
2 56035  43.0013 124.6131 0000961 256.0135 104.0609 15.27576396180389
STARLINK-5790           
1 56036U 23042BC  26182.13277526  .00000078  00000+0  12365-4 0  9998
2 56036  43.0019 124.6662 0000656 223.4169 136.6631 15.27578578180381
STARLINK-5758           
1 56037U 23042BD  26182.07944127 -.00009671  00000+0 -34196-3 0  9995
2 56037  43.0014 110.3817 0001503 247.3940 112.6753 15.27619153180547
STARLINK-5793           
1 56038U 23042BE  26182.14947195  .00001449  00000+0  62165-4 0  9993
2 56038  43.0007 124.7978 0000987 165.9257 194.1622 15.27584833180386
STARLINK-5795           
1 56039U 23042BF  26181.83589548  .00000157  00000+0  15240-4 0  9990
2 56039  43.0022 111.9937 0000877 255.6930 104.3824 15.27577206180507
STARLINK-5798           
1 56040U 23042BG  26182.10129488  .00000262  00000+0  19022-4 0  9995
2 56040  43.0027 110.5352 0000597 245.3716 114.7074 15.27575157180546
STARLINK-5800           
1 56041U 23042BH  26181.80585650  .00001983  00000+0  81558-4 0  9993
2 56041  43.0045 115.1635 0001445 261.5118  98.5570 15.27581872180463
STARLINK-6109           
1 56094U 23046B   26181.54640384 -.00000227  00000+0  12547-5 0  9996
2 56094  43.0021 244.0242 0001025 273.6045  86.4690 15.27575575179299
STARLINK-6090           
1 56095U 23046C   26182.58487724 -.00001299  00000+0 -37709-4 0  9996
2 56095  43.0006 238.0588 0001038 286.0818  73.9920 15.27568828179457
STARLINK-6089           
1 56096U 23046D   26182.59643937  .00000255  00000+0  18776-4 0  9990
2 56096  43.0022 238.1439 0001204 284.0110  76.0608 15.27578328179453
STARLINK-6077           
1 56097U 23046E   26182.51517438 -.00000050  00000+0  76897-5 0  9992
2 56097  43.0011 191.4549 0001026 270.7542  89.3192 15.27574147179986
STARLINK-6088           
1 56098U 23046F   26181.54255013 -.00000091  00000+0  62255-5 0  9991
2 56098  43.0010 243.9984 0000974 285.2615  74.8128 15.27574868179286
STARLINK-6076           
1 56100U 23046H   26182.44897002  .00001009  00000+0  46187-4 0  9999
2 56100  42.9986 238.7623 0001378 293.3784  66.6922 15.27588954179437
STARLINK-6095           
1 56101U 23046J   26181.60279562 -.00000920  00000+0 -23922-4 0  9997
2 56101  43.0011 243.5813 0001300 273.9115  86.1588 15.27576637179307
STARLINK-6075           
1 56102U 23046K   26182.59901016  .00000169  00000+0  15667-4 0  9993
2 56102  43.0011 238.1548 0001429 319.8087  40.2659 15.27588774179454
STARLINK-6096           
1 56103U 23046L   26181.54513790 -.00000869  00000+0 -22055-4 0  9994
2 56103  43.0017 244.0112 0001122 281.3145  78.7580 15.27565369179298
STARLINK-6062           
1 56104U 23046M   26179.51428131  .00004175  00000+0  16122-3 0  9992
2 56104  43.0020 255.4275 0001365 260.9740  99.0957 15.27566985178986
STARLINK-6066           
1 56105U 23046N   26182.49264955  .00021940  00000+0  80368-3 0  9998
2 56105  42.9979 239.0729 0002180 260.9519  99.1086 15.27609557179438
